{"type": "FeatureCollection", "features": [ {"type": "Feature", "properties": {"norad_id": 30742, "name": "FENGYUN 1C DEB", "group": "fengyun-1c-debris", "lat": -43.26362445504975, "lon": 45.693908768544574, "alt_km": 879.0329189621734, "timestamp": "2025-12-18T21:31:51.280226+00:00", "meta": {"OBJECT_NAME": "FENGYUN 1C DEB", "OBJECT_ID": "1999-025ATC", "EPOCH": "2025-12-17T15:41:06.675072", "MEAN_MOTION": 14.10394533, "ECCENTRICITY": 0.00714014, "INCLINATION": 98.868, "RA_OF_ASC_NODE": 36.0182, "ARG_OF_PERICENTER": 213.0656, "MEAN_ANOMALY": 271.6783, "EPHEMERIS_TYPE": 0, "CLASSIFICATION_TYPE": "U", "NORAD_CAT_ID": 30742, "ELEMENT_SET_NO": 999, "REV_AT_EPOCH": 96111, "BSTAR": 0.0013175652, "MEAN_MOTION_DOT": 2.354e-05, "MEAN_MOTION_DDOT": 0}, "tle": {"line1": "1 30742U 99025ATC 25351.65354948  .00002354  00000+0  13176-2 0  9994", "line2": "2 30742  98.8680  36.0182 0071401 213.0656 271.6783 14.10394533961118"}}, "geometry": {"type": "Point", "coordinates": [45.693908768544574, -43.26362445504975]}}, {"type": "Feature", "properties": {"norad_id": 30744, "name": "FENGYUN 1C DEB", "group": "fengyun-1c-debris", "lat": 40.15555584350457, "lon": 132.19452575019602, "alt_km": 600.3732616432217, "timestamp": "2025-12-18T21:31:51.280237+00:00", "meta": {"OBJECT_NAME": "FENGYUN 1C DEB", "OBJECT_ID": "1999-025ATE", "EPOCH": "2025-12-18T04:25:04.614816", "MEAN_MOTION": 14.89965841, "ECCENTRICITY": 0.00104395, "INCLINATION": 98.7297, "RA_OF_ASC_NODE": 138.8569, "ARG_OF_PERICENTER": 262.3982, "MEAN_ANOMALY": 275.9018, "EPHEMERIS_TYPE": 0, "CLASSIFICATION_TYPE": "U", "NORAD_CAT_ID": 30744, "ELEMENT_SET_NO": 999, "REV_AT_EPOCH": 98169, "BSTAR": 0.0040938239, "MEAN_MOTION_DOT": 0.0003963, "MEAN_MOTION_DDOT": 0}, "tle": {"line1": "1 30744U 99025ATE 25352.18408119  .00039630  00000+0  40938-2 0  9998", "line2": "2 30744  98.7297 138.8569 0010439 262.3982 275.9018 14.89965841981691"}}, "geometry": {"type": "Point", "coordinates": [132.19452575019602, 40.15555584350457]}}, {"type": "Feature", "properties": {"norad_id": 30746, "name": "FENGYUN 1C DEB", "group": "fengyun-1c-debris", "lat": -48.675110291519566, "lon": -175.83591051416494, "alt_km": 774.2223052262452, "timestamp": "2025-12-18T21:31:51.280247+00:00", "meta": {"OBJECT_NAME": "FENGYUN 1C DEB", "OBJECT_ID": "1999-025ATG", "EPOCH": "2025-12-17T10:43:17.363136", "MEAN_MOTION": 14.27525801, "ECCENTRICITY": 0.00461091, "INCLINATION": 99.0573, "RA_OF_ASC_NODE": 172.21, "ARG_OF_PERICENTER": 304.5842, "MEAN_ANOMALY": 116.3759, "EPHEMERIS_TYPE": 0, "CLASSIFICATION_TYPE": "U", "NORAD_CAT_ID": 30746, "ELEMENT_SET_NO": 999, "REV_AT_EPOCH": 97513, "BSTAR": 0.00039769813, "MEAN_MOTION_DOT": 9.41e-06, "MEAN_MOTION_DDOT": 0}, "tle": {"line1": "1 30746U 99025ATG 25351.44672874  .00000941  00000+0  39770-3 0  9995", "line2": "2 30746  99.0573 172.2100 0046109 304.5842 116.3759 14.27525801975136"}}, "geometry": {"type": "Point", "coordinates": [-175.83591051416494, -48.675110291519566]}}, {"type": "Feature", "properties": {"norad_id": 30749, "name": "FENGYUN 1C DEB", "group": "fengyun-1c-debris", "lat": 53.60323069566742, "lon": 7.271616079722739, "alt_km": 927.5530265216812, "timestamp": "2025-12-18T21:31:51.280257+00:00", "meta": {"OBJECT_NAME": "FENGYUN 1C DEB", "OBJECT_ID": "1999-025ATK", "EPOCH": "2025-12-18T07:32:41.752032", "MEAN_MOTION": 13.99838676, "ECCENTRICITY": 0.00558322, "INCLINATION": 98.8867, "RA_OF_ASC_NODE": 18.9592, "ARG_OF_PERICENTER": 216.9111, "MEAN_ANOMALY": 142.8205, "EPHEMERIS_TYPE": 0, "CLASSIFICATION_TYPE": "U", "NORAD_CAT_ID": 30749, "ELEMENT_SET_NO": 999, "REV_AT_EPOCH": 96044, "BSTAR": 2.2730201e-05, "MEAN_MOTION_DOT": -9e-08, "MEAN_MOTION_DDOT": 0}, "tle": {"line1": "1 30749U 99025ATK 25352.31437213 -.00000009  00000+0  22730-4 0  9996", "line2": "2 30749  98.8867  18.9592 0055832 216.9111 142.8205 13.99838676960444"}}, "geometry": {"type": "Point", "coordinates": [7.271616079722739, 53.60323069566742]}}, {"type": "Feature", "properties": {"norad_id": 30750, "name": "FENGYUN 1C DEB", "group": "fengyun-1c-debris", "lat": -59.14586081729738, "lon": -127.6604831484059, "alt_km": 829.9784179596263, "timestamp": "2025-12-18T21:31:51.280268+00:00", "meta": {"OBJECT_NAME": "FENGYUN 1C DEB", "OBJECT_ID": "1999-025ATL", "EPOCH": "2025-12-18T03:54:52.610688", "MEAN_MOTION": 14.28650283, "ECCENTRICITY": 0.00401041, "INCLINATION": 98.9197, "RA_OF_ASC_NODE": 66.8308, "ARG_OF_PERICENTER": 84.4204, "MEAN_ANOMALY": 342.6811, "EPHEMERIS_TYPE": 0, "CLASSIFICATION_TYPE": "U", "NORAD_CAT_ID": 30750, "ELEMENT_SET_NO": 999, "REV_AT_EPOCH": 96859, "BSTAR": 0.0013544423, "MEAN_MOTION_DOT": 3.388e-05, "MEAN_MOTION_DDOT": 0}, "tle": {"line1": "1 30750U 99025ATL 25352.16310892  .00003388  00000+0  13544-2 0  9997", "line2": "2 30750  98.9197  66.8308 0040104  84.4204 342.6811 14.28650283968593"}}, "geometry": {"type": "Point", "coordinates": [-127.6604831484059, -59.14586081729738]}}, {"type": "Feature", "properties": {"norad_id": 30751, "name": "FENGYUN 1C DEB", "group": "fengyun-1c-debris", "lat": 34.793517318162976, "lon": 45.83644751554227, "alt_km": 812.0041647751332, "timestamp": "2025-12-18T21:31:51.280279+00:00", "meta": {"OBJECT_NAME": "FENGYUN 1C DEB", "OBJECT_ID": "1999-025ATM", "EPOCH": "2025-12-18T02:50:28.749120", "MEAN_MOTION": 14.15230373, "ECCENTRICITY": 0.0051861, "INCLINATION": 98.855, "RA_OF_ASC_NODE": 51.282, "ARG_OF_PERICENTER": 81.3052, "MEAN_ANOMALY": 309.1699, "EPHEMERIS_TYPE": 0, "CLASSIFICATION_TYPE": "U", "NORAD_CAT_ID": 30751, "ELEMENT_SET_NO": 999, "REV_AT_EPOCH": 96352, "BSTAR": 0.0011637401, "MEAN_MOTION_DOT": 2.248e-05, "MEAN_MOTION_DDOT": 0}, "tle": {"line1": "1 30751U 99025ATM 25352.11838830  .00002248  00000+0  11637-2 0  9995", "line2": "2 30751  98.8550  51.2820 0051861  81.3052 309.1699 14.15230373963522"}}, "geometry": {"type": "Point", "coordinates": [45.83644751554227, 34.793517318162976]}}, {"type": "Feature", "properties": {"norad_id": 30753, "name": "FENGYUN 1C DEB", "group": "fengyun-1c-debris", "lat": 39.03228889370355, "lon": -141.39434307332104, "alt_km": 885.3618312002764, "timestamp": "2025-12-18T21:31:51.280289+00:00", "meta": {"OBJECT_NAME": "FENGYUN 1C DEB", "OBJECT_ID": "1999-025ATP", "EPOCH": "2025-12-18T02:10:12.859968", "MEAN_MOTION": 14.1266717, "ECCENTRICITY": 0.0055193, "INCLINATION": 98.8068, "RA_OF_ASC_NODE": 30.5924, "ARG_OF_PERICENTER": 339.6727, "MEAN_ANOMALY": 20.2248, "EPHEMERIS_TYPE": 0, "CLASSIFICATION_TYPE": "U", "NORAD_CAT_ID": 30753, "ELEMENT_SET_NO": 999, "REV_AT_EPOCH": 96427, "BSTAR": 0.00091678856, "MEAN_MOTION_DOT": 1.68e-05, "MEAN_MOTION_DDOT": 0}, "tle": {"line1": "1 30753U 99025ATP 25352.09042662  .00001680  00000+0  91679-3 0  9998", "line2": "2 30753  98.8068  30.5924 0055193 339.6727  20.2248 14.12667170964273"}}, "geometry": {"type": "Point", "coordinates": [-141.39434307332104, 39.03228889370355]}}, {"type": "Feature", "properties": {"norad_id": 30755, "name": "FENGYUN 1C DEB", "group": "fengyun-1c-debris", "lat": -74.34285968803621, "lon": 136.08296069689283, "alt_km": 642.6628612082095, "timestamp": "2025-12-18T21:31:51.280300+00:00", "meta": {"OBJECT_NAME": "FENGYUN 1C DEB", "OBJECT_ID": "1999-025ATR", "EPOCH": "2025-12-17T23:00:08.311392", "MEAN_MOTION": 14.44977625, "ECCENTRICITY": 0.01507763, "INCLINATION": 98.2584, "RA_OF_ASC_NODE": 346.3807, "ARG_OF_PERICENTER": 253.1206, "MEAN_ANOMALY": 163.1635, "EPHEMERIS_TYPE": 0, "CLASSIFICATION_TYPE": "U", "NORAD_CAT_ID": 30755, "ELEMENT_SET_NO": 999, "REV_AT_EPOCH": 98520, "BSTAR": 0.00045403707, "MEAN_MOTION_DOT": 1.77e-05, "MEAN_MOTION_DDOT": 0}, "tle": {"line1": "1 30755U 99025ATR 25351.95842953  .00001770  00000+0  45404-3 0  9990", "line2": "2 30755  98.2584 346.3807 0150776 253.1206 163.1635 14.44977625985202"}}, "geometry": {"type": "Point", "coordinates": [136.08296069689283, -74.34285968803621]}}, {"type": "Feature", "properties": {"norad_id": 30756, "name": "FENGYUN 1C DEB", "group": "fengyun-1c-debris", "lat": -0.8762475370258377, "lon": 60.52255138790032, "alt_km": 808.7289166527189, "timestamp": "2025-12-18T21:31:51.280310+00:00", "meta": {"OBJECT_NAME": "FENGYUN 1C DEB", "OBJECT_ID": "1999-025ATS", "EPOCH": "2025-12-17T15:47:24.252576", "MEAN_MOTION": 14.1830518, "ECCENTRICITY": 0.00714156, "INCLINATION": 98.9909, "RA_OF_ASC_NODE": 59.1287, "ARG_OF_PERICENTER": 301.9034, "MEAN_ANOMALY": 212.8921, "EPHEMERIS_TYPE": 0, "CLASSIFICATION_TYPE": "U", "NORAD_CAT_ID": 30756, "ELEMENT_SET_NO": 999, "REV_AT_EPOCH": 96474, "BSTAR": 0.0012010059, "MEAN_MOTION_DOT": 2.491e-05, "MEAN_MOTION_DDOT": 0}, "tle": {"line1": "1 30756U 99025ATS 25351.65791959  .00002491  00000+0  12010-2 0  9994", "line2": "2 30756  98.9909  59.1287 0071415 301.9034 212.8921 14.18305180964743"}}, "geometry": {"type": "Point", "coordinates": [60.52255138790032, -0.8762475370258377]}}, {"type": "Feature", "properties": {"norad_id": 30758, "name": "FENGYUN 1C DEB", "group": "fengyun-1c-debris", "lat": 5.553356860906315, "lon": 110.79413551029009, "alt_km": 811.2401225105505, "timestamp": "2025-12-18T21:31:51.280320+00:00", "meta": {"OBJECT_NAME": "FENGYUN 1C DEB", "OBJECT_ID": "1999-025ATU", "EPOCH": "2025-12-18T01:25:53.327136", "MEAN_MOTION": 14.17131159, "ECCENTRICITY": 0.00384032, "INCLINATION": 99.0185, "RA_OF_ASC_NODE": 110.8298, "ARG_OF_PERICENTER": 347.6484, "MEAN_ANOMALY": 67.7822, "EPHEMERIS_TYPE": 0, "CLASSIFICATION_TYPE": "U", "NORAD_CAT_ID": 30758, "ELEMENT_SET_NO": 999, "REV_AT_EPOCH": 96566, "BSTAR": 0.0008333481, "MEAN_MOTION_DOT": 1.645e-05, "MEAN_MOTION_DDOT": 0}, "tle": {"line1": "1 30758U 99025ATU 25352.05964499  .00001645  00000+0  83335-3 0  9991", "line2": "2 30758  99.0185 110.8298 0038403 347.6484  67.7822 14.17131159965667"}}, "geometry": {"type": "Point", "coordinates": [110.79413551029009, 5.553356860906315]}}]}